{
    "type": "FeatureCollection",
    "features": [
        {
            "type": "Feature",
            "properties": {
                "Name": "University of Toronto",
                "ExperienceType": "Education",
                "Description": "Major - Biodiversity and Conservation Biology, Major - Environmental Ethics , Minor - Geographic Information Systems",
                "Year": "2019-2024",
                "YearTruncated": 2019
            },
            "geometry": {
                "coordinates": [
                    -79.39512071987686,
                    43.66180471069458
                ],
                "type": "Point"
            },
            "id": 0
        },
        {
            "type": "Feature",
            "properties": {
                "Name": "Somerville High School",
                "ExperienceType": "Education",
                "Description": "College Track Program with Vocational Culinary-Arts",
                "Year": "2015-2019",
                "YearTruncated": 2015
            },
            "geometry": {
                "coordinates": [
                    -71.09647636158911,
                    42.386864529111335
                ],
                "type": "Point"
            },
            "id": 1
        },
        {
            "type": "Feature",
            "properties": {
                "Name": "Research Assistant: Urban Genome Project",
                "ExperienceType": "Research",
                "Description": "Work-study position through Daniel's at UofT, Mixed-method sociological research on invasive species management and conceptualization at the municipal level,Data collection + processing + analysis to develop a framework of invasive species conceptualization in the Toronto and Region Conservation Authority,Literature review and cartography for final manuscript, Co-author on manuscript currently under review",
                "Year": "2023-2024",
                "YearTruncated": 2023
            },
            "geometry": {
                "coordinates": [
                    -79.40070651220746,
                    43.65966022937468
                ],
                "type": "Point"
            },
            "id": 2
        },
        {
            "type": "Feature",
            "properties": {
                "Name": "ESRI Canada Student Associate",
                "ExperienceType": "Other",
                "Description": "Student program through ESRI Canada focused on developing GIS skills and networking, Publish GIS-focused writing pieces on the ESRI Canada site, Participate in a national application design challenge ",
                "Year": "2023-2024",
                "YearTruncated": 2023
            },
            "geometry": {
                "coordinates": [
                    -79.39863470124627,
                    43.662382585035175
                ],
                "type": "Point"
            }
        },
        {
            "type": "Feature",
            "properties": {
                "ExperienceType": "Research",
                "Description": "Production of chronology + annotated bibliography and databases supporting political economy research on organic wine production and wine cooperatives in Southern France, Background research on the progression of EU wine and agricultural policies.",
                "Name": "Research Assistant, Scott Prudham",
                "Year": 2022,
                "YearTruncated": 2022
            },
            "geometry": {
                "coordinates": [
                    -79.39875551979807,
                    43.66277746373467
                ],
                "type": "Point"
            }
        },
        {
            "type": "Feature",
            "properties": {
                "Name": "Line Cook / Barista: Rustle and Still",
                "ExperienceType": "Job",
                "Description": "Work efficiently and collaboratively in a fast paced kitchen environment, Produce high quality consistent food and drinks while maintaining customer service",
                "Year": "2022-2024",
                "YearTruncated": 2022
            },
            "geometry": {
                "coordinates": [
                    -79.41309927116498,
                    43.664730119422074
                ],
                "type": "Point"
            },
            "id": 5
        },
        {
            "type": "Feature",
            "properties": {
                "Name": "Barista: Goldstruck",
                "ExperienceType": "Job",
                "Description": "Work efficiently and collaboratively in a fast paced kitchen environment, Produce high quality consistent food and drinks while maintaining customer service",
                "Year": "2021-2022",
                 "YearTruncated": 2021
            },
            "geometry": {
                "coordinates": [
                    -79.3921882711636,
                    43.670059880233595
                ],
                "type": "Point"
            },
            "id": 6
        },
        {
            "type": "Feature",
            "properties": {
                "Name": "Political Canvassing: CADC",
                "ExperienceType": "Job",
                "Description": "Data collection and political canvassing in relation to the November 2020 presidential and senatorial election.",
                "Year": 2020,
                 "YearTruncated": 2020
            },
            "geometry": {
                "coordinates": [
                    -110.97512919151158,
                    32.21924161935728
                ],
                "type": "Point"
            }
        },
        {
            "type": "Feature",
            "properties": {
                "Name": "Prep Cook: Sarma",
                "ExperienceType": "Job",
                "Description": "Currently ranked #1 restaurant in Boston, Operate as a team member in a fast paced and highly detail oriented kitchen",
                "Year": "2018-2019",
                 "YearTruncated": 2018
            },
            "geometry": {
                "coordinates": [
                    -71.09546999999995,
                    42.388181492342085
                ],
                "type": "Point"
            }
        },
        {
            "type": "Feature",
            "properties": {
                "Name": "Lab Assistant: BioSeq",
                "ExperienceType": "Research",
                "Description": "Assist in designing experiments relating to bioinformatics and next-generation sequencing.",
                "Year": "2017-2018",
                 "YearTruncated": 2017
            },
            "geometry": {
                "coordinates": [
                    -71.12045953716331,
                    42.40485109652886
                ],
                "type": "Point"
            }
        },
        {
            "type": "Feature",
            "properties": {
                "Name": "Organizer: UofT Emergency Food Bank",
                "ExperienceType": "Volunteer",
                "Description": "Aid in supplying UofT community through partnership with FoodShare TO, Grant writing, Work with task group to develop advocacy and community involvement initiatives",
                "Year": "2021-2022",
                 "YearTruncated": 2021
            },
            "geometry": {
                "coordinates": [
                    -79.39688282455593,
                    43.658962367110036
                ],
                "type": "Point"
            },
            "id": 10
        },
        {
            "type": "Feature",
            "properties": {
                "Name": "Volunteer: Bikechain",
                "ExperienceType": "Volunteer",
                "Description": "Bicycle repair and maintenance. ",
                "Year": "2021-2024",
                 "YearTruncated": 2021
            },
            "geometry": {
                "coordinates": [
                    -79.39815458788371,
                    43.658690449249775
                ],
                "type": "Point"
            },
            "id": 11
        },
        {
            "type": "Feature",
            "properties": {
                "Name": "Volunteer, Community Fridges Toronto",
                "ExperienceType": "Volunteer",
                "Year": 2021,
                "Description": "Weekly fridge cleaning and maintenance.",
                 "YearTruncated": 2021
            },
            "geometry": {
                "coordinates": [
                    -79.41101088192067,
                    43.651410286301285
                ],
                "type": "Point"
            },
            "id": 12
        },
        {
            "type": "Feature",
            "properties": {
                "Name": "Massachusetts Department of Conservation and Recreation: OpenSpace Editor",
                "ExperienceType": "Job",
                "Year": "2024-2025",
                "Description": "Geospatial data editing for MassGIS's Protected OpenSpace data layer,Background research in state and municipal databases including deeds + state legislation + maps + plans + and surveys,Update internal government land acquisition records and sync information with accurate geometry and attribute information in OpenSpace,Synthesize field data + tax assessor parcels + coordinate geometry + LIDAR + hydrological data and transportation data to represent accurate legal boundaries,Work within an Oracle relational database management system",
                 "YearTruncated": 2024
            },
            "geometry": {
                "coordinates": [
                    -71.06671591434713,
                    42.35149928815926
                ],
                "type": "Point"
            },
            "id": 13
        },
        {
            "type": "Feature",
            "properties": {
                "Name": "Tutor: Geographic Information Systems",
                "ExperienceType": "Extra-Curricular",
                "Description": "In-person tutoring and production of instructional documents for the Seneca College course: Geospatial Data Collection + Analysis & Interpretation using GIS Technology",
                "Year": "2023-2024",
                 "YearTruncated": 2023
            },
            "geometry": {
                "coordinates": [
                    -79.4054609302481,
                    43.65209966842866
                ],
                "type": "Point"
            },
            "id": 14
        },
        {
            "type": "Feature",
            "properties": {
                "Name": "Student Researcher: Rocky Mountain Biological Laboratory",
                "ExperienceType": "Research",
                "Description": "Design and perform study analyzing environmental drivers of vegetative senescence in Veratrum californicum using remote sensing and en situ data collection,Quadrat sampling using: a Trimble GeoXT 6000 + HOBO Pendant Temperature/Light Data Loggers and FieldScout TDR 150 Soil Moisture Meter, RS Imagery: classified vegetation raster + digital elevation model and an imagery raster with blue + green + red + near-infrared + red-edge and thermal bands,Creation of senescence rasters for Veratrum californicum by masking NIR and red-edge bands by the vegetative extent drawn from classified imagery and calculating NDVI, Spatial and non-spatial regressions using Rstudio and ArcGIS.",
                "Year": "2023",
                "URL": "https://ecce.esri.ca/uoft-blog/2024/01/15/remote-and-direct-sensing/",
                 "YearTruncated": 2023
            },
            "geometry": {
                "coordinates": [
                    -106.98887085545665,
                    38.95858649353906
                ],
                "type": "Point"
            }
        },
        {
            "type": "Feature",
            "properties": {
                "Name": "Research Course, ENV421: Community Research for Social & Environmental Change",
                "ExperienceType": "Research",
                "Description": "Group research project (seven students from course and three MealCare organizers) surrounding a community partnership with MealCare-an organization working to redistribute surplus food around the city of Toronto minimizing waste and addressing food insecurity, Project primarily centered on semi-structured interviewing of potential donors and beneficiaries to improve the efficiency and reach of MealCare’s programming, Created web map depicting MealCare’s spatial capacity and highlighting potential hotspots for both food donors and beneficiaries.",
                "Year": "2023-2024",
                 "YearTruncated": 2023
            },
            "geometry": {
                "coordinates": [
                    -79.39363112709323,
                    43.659917960647874
                ],
                "type": "Point"
            }
        },
        {
            "type": "Feature",
            "properties": {
                "Name": "Toronto Metropolitan University Institute for Change Leaders: Advocacy and Campaign Course",
                "ExperienceType": "Extra-Curricular",
                "Description": "Weekly training to support volunteer work with the University of Toronto Emergency Food Bank, Group seminars with local organizers, discussing advocacy and effective organizing",
                "Year": "2021",
                 "YearTruncated": 2021
            },
            "geometry": {
                "coordinates": [
                    -79.37802975496793,
                    43.65826288990044
                ],
                "type": "Point"
            }
        },
        {
            "type": "Feature",
            "properties": {
                "Name": "Folkuniversitet Stockholm: Swedish Language A1/A2",
                "ExperienceType": "Extra-Curricular",
                "Description": "One month intensive Swedish language course",
                "Year": "2024",
                 "YearTruncated": 2024
            },
            "geometry": {
                "coordinates": [
                    18.055678846302072,
                    59.34061720922952
                ],
                "type": "Point"
            }
        },
        {
  "type": "Feature",
  "features": [
    {
      "type": "Feature",
      "properties": {
"Name": "Stockholm University: Freestanding Courses in Geomatics MSc",
                "ExperienceType": "Education",
                "Description": "GE7089 - Geographic Analysis and Visualization in GIS, GE7090 - Advanced Remote Sensing",
                "Year": "2026",
                 "YearTruncated": 2026

      },
      "geometry": {
        "coordinates": [
          18.05718179640519,
          59.365469160661064
        ],
        "type": "Point"
      }
    }
  ]
}
    ]
}